{
  "type": "FeatureCollection",
  "features": [
    {
      "type": "Feature",
      "properties": {
        "norad_id": 33412,
        "name": "COSMO-SKYMED 3",
        "group": "resource",
        "lat": -1.0884063777270414,
        "lon": -156.37003960922792,
        "alt_km": 563.6820997016212,
        "timestamp": "2025-12-18T23:35:48.703831+00:00",
        "meta_object_name": "COSMO-SKYMED 3",
        "meta_object_id": "2008-054A",
        "meta_epoch": "2025-12-18T14:01:48.961344",
        "meta_mean_motion": 15.0541031,
        "meta_eccentricity": 0.00167137,
        "meta_inclination": 97.8471,
        "meta_ra_of_asc_node": 203.0746,
        "meta_arg_of_pericenter": 152.6275,
        "meta_mean_anomaly": 207.5835,
        "meta_ephemeris_type": 0,
        "meta_classification_type": "U",
        "meta_norad_cat_id": 33412,
        "meta_element_set_no": 999,
        "meta_rev_at_epoch": 92975,
        "meta_bstar": 0.00026468811,
        "meta_mean_motion_dot": 3.743e-05,
        "meta_mean_motion_ddot": 0,
        "tle_line1": "1 33412U 08054A   25352.58459446  .00003743  00000+0  26469-3 0  9998",
        "tle_line2": "2 33412  97.8471 203.0746 0016713 152.6275 207.5835 15.05410310929751"
      },
      "geometry": {
        "type": "Point",
        "coordinates": [
          -156.37003960922792,
          -1.0884063777270414
        ]
      }
    },
    {
      "type": "Feature",
      "properties": {
        "norad_id": 33446,
        "name": "YAOGAN-4",
        "group": "resource",
        "lat": -10.935289146215824,
        "lon": 101.48014932381695,
        "alt_km": 628.3948103837201,
        "timestamp": "2025-12-18T23:35:48.703842+00:00",
        "meta_object_name": "YAOGAN-4",
        "meta_object_id": "2008-061A",
        "meta_epoch": "2025-12-18T13:01:09.446880",
        "meta_mean_motion": 14.82698896,
        "meta_eccentricity": 0.00132274,
        "meta_inclination": 97.9189,
        "meta_ra_of_asc_node": 282.5848,
        "meta_arg_of_pericenter": 302.9674,
        "meta_mean_anomaly": 57.0267,
        "meta_ephemeris_type": 0,
        "meta_classification_type": "U",
        "meta_norad_cat_id": 33446,
        "meta_element_set_no": 999,
        "meta_rev_at_epoch": 91889,
        "meta_bstar": 0.00013597644,
        "meta_mean_motion_dot": 1.045e-05,
        "meta_mean_motion_ddot": 0,
        "tle_line1": "1 33446U 08061A   25352.54247045  .00001045  00000+0  13598-3 0  9991",
        "tle_line2": "2 33446  97.9189 282.5848 0013227 302.9674  57.0267 14.82698896918891"
      },
      "geometry": {
        "type": "Point",
        "coordinates": [
          101.48014932381695,
          -10.935289146215824
        ]
      }
    },
    {
      "type": "Feature",
      "properties": {
        "norad_id": 33492,
        "name": "GOSAT (IBUKI)",
        "group": "resource",
        "lat": -79.44702051203748,
        "lon": -128.16595508275003,
        "alt_km": 676.9608471325364,
        "timestamp": "2025-12-18T23:35:48.703853+00:00",
        "meta_object_name": "GOSAT (IBUKI)",
        "meta_object_id": "2009-002A",
        "meta_epoch": "2025-12-18T14:13:09.624864",
        "meta_mean_motion": 14.67536615,
        "meta_eccentricity": 9.952e-05,
        "meta_inclination": 98.0772,
        "meta_ra_of_asc_node": 101.1145,
        "meta_arg_of_pericenter": 99.5034,
        "meta_mean_anomaly": 260.6283,
        "meta_ephemeris_type": 0,
        "meta_classification_type": "U",
        "meta_norad_cat_id": 33492,
        "meta_element_set_no": 999,
        "meta_rev_at_epoch": 90497,
        "meta_bstar": 0.00012115353,
        "meta_mean_motion_dot": 6.39e-06,
        "meta_mean_motion_ddot": 0,
        "tle_line1": "1 33492U 09002A   25352.59247251  .00000639  00000+0  12115-3 0  9994",
        "tle_line2": "2 33492  98.0772 101.1145 0000995  99.5034 260.6283 14.67536615904972"
      },
      "geometry": {
        "type": "Point",
        "coordinates": [
          -128.16595508275003,
          -79.44702051203748
        ]
      }
    },
    {
      "type": "Feature",
      "properties": {
        "norad_id": 35681,
        "name": "DEIMOS-1",
        "group": "resource",
        "lat": 32.36548253023609,
        "lon": -21.776646336608344,
        "alt_km": 643.0058064747955,
        "timestamp": "2025-12-18T23:35:48.703864+00:00",
        "meta_object_name": "DEIMOS-1",
        "meta_object_id": "2009-041A",
        "meta_epoch": "2025-12-18T14:47:28.123872",
        "meta_mean_motion": 14.74961023,
        "meta_eccentricity": 0.00026337,
        "meta_inclination": 97.7142,
        "meta_ra_of_asc_node": 152.9455,
        "meta_arg_of_pericenter": 70.4379,
        "meta_mean_anomaly": 289.7115,
        "meta_ephemeris_type": 0,
        "meta_classification_type": "U",
        "meta_norad_cat_id": 35681,
        "meta_element_set_no": 999,
        "meta_rev_at_epoch": 88026,
        "meta_bstar": 7.2340544e-05,
        "meta_mean_motion_dot": 4.39e-06,
        "meta_mean_motion_ddot": 0,
        "tle_line1": "1 35681U 09041A   25352.61629773  .00000439  00000+0  72341-4 0  9991",
        "tle_line2": "2 35681  97.7142 152.9455 0002633  70.4379 289.7115 14.74961023880264"
      },
      "geometry": {
        "type": "Point",
        "coordinates": [
          -21.776646336608344,
          32.36548253023609
        ]
      }
    },
    {
      "type": "Feature",
      "properties": {
        "norad_id": 35682,
        "name": "DUBAISAT-1",
        "group": "resource",
        "lat": 72.60144614798998,
        "lon": 96.97826826482789,
        "alt_km": 644.539226742997,
        "timestamp": "2025-12-18T23:35:48.703874+00:00",
        "meta_object_name": "DUBAISAT-1",
        "meta_object_id": "2009-041B",
        "meta_epoch": "2025-12-18T08:36:12.443904",
        "meta_mean_motion": 14.74619432,
        "meta_eccentricity": 0.00093202,
        "meta_inclination": 97.9796,
        "meta_ra_of_asc_node": 122.9557,
        "meta_arg_of_pericenter": 294.4715,
        "meta_mean_anomaly": 65.5522,
        "meta_ephemeris_type": 0,
        "meta_classification_type": "U",
        "meta_norad_cat_id": 35682,
        "meta_element_set_no": 999,
        "meta_rev_at_epoch": 87844,
        "meta_bstar": 0.00016419287,
        "meta_mean_motion_dot": 1.045e-05,
        "meta_mean_motion_ddot": 0,
        "tle_line1": "1 35682U 09041B   25352.35847736  .00001045  00000+0  16419-3 0  9991",
        "tle_line2": "2 35682  97.9796 122.9557 0009320 294.4715  65.5522 14.74619432878447"
      },
      "geometry": {
        "type": "Point",
        "coordinates": [
          96.97826826482789,
          72.60144614798998
        ]
      }
    },
    {
      "type": "Feature",
      "properties": {
        "norad_id": 35931,
        "name": "OCEANSAT-2",
        "group": "resource",
        "lat": 8.642011605153447,
        "lon": -8.308720995828105,
        "alt_km": 885.8099845083334,
        "timestamp": "2025-12-18T23:35:48.703886+00:00",
        "meta_object_name": "OCEANSAT-2",
        "meta_object_id": "2009-051A",
        "meta_epoch": "2025-12-18T14:58:36.666336",
        "meta_mean_motion": 13.99623445,
        "meta_eccentricity": 0.00160642,
        "meta_inclination": 98.2218,
        "meta_ra_of_asc_node": 352.6277,
        "meta_arg_of_pericenter": 29.638,
        "meta_mean_anomaly": 330.5694,
        "meta_ephemeris_type": 0,
        "meta_classification_type": "U",
        "meta_norad_cat_id": 35931,
        "meta_element_set_no": 999,
        "meta_rev_at_epoch": 85407,
        "meta_bstar": -6.9829156e-05,
        "meta_mean_motion_dot": -1.4e-06,
        "meta_mean_motion_ddot": 0,
        "tle_line1": "1 35931U 09051A   25352.62403549 -.00000140  00000+0 -69829-4 0  9990",
        "tle_line2": "2 35931  98.2218 352.6277 0016064  29.6380 330.5694 13.99623445854070"
      },
      "geometry": {
        "type": "Point",
        "coordinates": [
          -8.308720995828105,
          8.642011605153447
        ]
      }
    },
    {
      "type": "Feature",
      "properties": {
        "norad_id": 35946,
        "name": "WORLDVIEW-2 (WV-2)",
        "group": "resource",
        "lat": -80.41851438946448,
        "lon": -178.1008809888857,
        "alt_km": 776.4332312255237,
        "timestamp": "2025-12-18T23:35:48.703897+00:00",
        "meta_object_name": "WORLDVIEW-2 (WV-2)",
        "meta_object_id": "2009-055A",
        "meta_epoch": "2025-12-18T14:00:51.330816",
        "meta_mean_motion": 14.37726477,
        "meta_eccentricity": 0.00049928,
        "meta_inclination": 98.4783,
        "meta_ra_of_asc_node": 63.5882,
        "meta_arg_of_pericenter": 56.4122,
        "meta_mean_anomaly": 303.7541,
        "meta_ephemeris_type": 0,
        "meta_classification_type": "U",
        "meta_norad_cat_id": 35946,
        "meta_element_set_no": 999,
        "meta_rev_at_epoch": 84969,
        "meta_bstar": 5.8184908e-05,
        "meta_mean_motion_dot": 1.31e-06,
        "meta_mean_motion_ddot": 0,
        "tle_line1": "1 35946U 09055A   25352.58392744  .00000131  00000+0  58185-4 0  9990",
        "tle_line2": "2 35946  98.4783  63.5882 0004992  56.4122 303.7541 14.37726477849691"
      },
      "geometry": {
        "type": "Point",
        "coordinates": [
          -178.1008809888857,
          -80.41851438946448
        ]
      }
    }
  ]
}